O3B FM5                 
1 39188U 13031A   24358.77378256 -.00000016  00000+0  00000+0 0  9990
2 39188   0.0619 348.3615 0002668 288.0298  83.5791  5.00115236210005
O3B FM4                 
1 39189U 13031B   24359.62885261 -.00000015  00000+0  00000+0 0  9994
2 39189   0.0379   5.1464 0002638 271.4900  83.3346  5.00115153210060
O3B FM2                 
1 39190U 13031C   24358.92104471 -.00000016  00000+0  00000+0 0  9996
2 39190   0.0335   9.0301 0002650 266.0773  84.8631  5.00115701210072
O3B PFM                 
1 39191U 13031D   24358.94643166 -.00000016  00000+0  00000+0 0  9998
2 39191   0.0546 353.4883 0002723 280.6672  85.8142  5.00115104209645
O3B FM3                 
1 40079U 14038A   24359.00131697 -.00000016  00000+0  00000+0 0  9992
2 40079   0.0439 358.0759 0005147 271.6541  90.2117  5.00114820186026
O3B FM7                 
1 40080U 14038B   24358.94753522 -.00000016  00000+0  00000+0 0  9993
2 40080   0.0395 356.2578 0001175 314.6168  49.1161  5.00115296190854
O3B FM6                 
1 40081U 14038C   24358.77477734 -.00000016  00000+0  00000+0 0  9993
2 40081   0.0436 359.4455 0002786 276.0113  84.5121  5.00115525190797
O3B FM8                 
1 40082U 14038D   24359.02814037 -.00000016  00000+0  00000+0 0  9994
2 40082   0.0427 358.8374 0002762 272.9998  88.1319  5.00115633190925
O3B FM10                
1 40348U 14083A   24359.05454022 -.00000016  00000+0  00000+0 0  9996
2 40348   0.0527 358.6004 0002711 276.8415  84.5280  5.00115731182860
O3B FM11                
1 40349U 14083B   24359.06777383 -.00000016  00000+0  00000+0 0  9996
2 40349   0.0513 353.5723 0002346 294.3403  72.0627  5.00115667182881
O3B FM12                
1 40350U 14083C   24358.89515759 -.00000016  00000+0  00000+0 0  9995
2 40350   0.0508 354.5101 0002811 284.3707  81.0881  5.00115725182899
O3B FM9                 
1 40351U 14083D   24358.52205604 -.00000017  00000+0  00000+0 0  9992
2 40351   0.0514 352.3184 0002666 281.4146  86.2371  5.00115395183016
LEO 1 (LEO VANTAGE 1)   
1 43113U 18004C   24359.81895274  .00007156  00000+0  52237-3 0  9992
2 43113  99.2945 197.0863 0366461 288.8013  67.3771 14.63121514358478
O3B FM15                
1 43231U 18024A   24358.78849163 -.00000016  00000+0  00000+0 0  9992
2 43231   0.0543   1.9455 0002979 274.7323  83.2890  5.00115171123980
O3B FM16                
1 43232U 18024B   24358.84110283 -.00000016  00000+0  00000+0 0  9994
2 43232   0.0571   4.9003 0002942 273.1034  81.9635  5.00115531123911
O3B FM14                
1 43233U 18024C   24358.88157699 -.00000016  00000+0  00000+0 0  9991
2 43233   0.0568   6.4545 0002841 267.2226  86.2911  5.00115118123928
O3B FM13                
1 43234U 18024D   24358.93488902 -.00000016  00000+0  00000+0 0  9992
2 43234   0.0593 332.7271 0003385 310.7222  76.5137  5.00115287124045
O3B FM20                
1 44112U 19020A   24359.50725682 -.00000015  00000+0  00000+0 0  9997
2 44112   0.0520 359.0076 0003027 285.5678  75.3921  5.00115196104576
O3B FM19                
1 44113U 19020B   24359.53457211 -.00000015  00000+0  00000+0 0  9991
2 44113   0.0483 343.5148 0001357 299.5051  76.9660  5.00115218104434
O3B FM17                
1 44114U 19020C   24358.01521027 -.00000018  00000+0  00000+0 0  9994
2 44114   0.0482  21.2211 0003066 256.2727  82.4716  5.00115044104457
O3B FM18                
1 44115U 19020D   24359.56052962 -.00000015  00000+0  00000+0 0  9990
2 44115   0.0523 358.6245 0002962 276.5449  84.7979  5.00114989104653
SALSAT                  
1 46495U 20068K   24359.88595501  .00014074  00000+0  68470-3 0  9991
2 46495  97.8414 324.9471 0013772  27.1099 333.0850 15.18437057233192
O3B MPOWER F1           
1 54755U 22174A   24359.90029845 -.00000014  00000+0  00000+0 0  9996
2 54755   0.0397 348.5736 0006018 272.0600 211.7700  5.00116660 38380
O3B MPOWER F2           
1 54756U 22174B   24359.57128831 -.00000015  00000+0  00000+0 0  9996
2 54756   0.0365 352.1426 0005975 282.8904  84.8998  5.00113618 38445
O3B MPOWER F4           
1 56367U 23059A   24359.67117095 -.00000015  00000+0  00000+0 0  9990
2 56367   0.0567 347.4549 0005452 270.6727 101.8123  5.00117218 31612
O3B MPOWER F3           
1 56368U 23059B   24358.93837339 -.00000016  00000+0  00000+0 0  9990
2 56368   0.0583 347.7995 0006419 287.8637  84.2643  5.00116668 27707
